{"type": "FeatureCollection", "features": [ {"type": "Feature", "properties": {"norad_id": 39574, "name": "GPM-CORE", "group": "resource", "lat": 12.56273026936137, "lon": 44.33832458128071, "alt_km": 432.2221748593338, "timestamp": "2025-12-07T11:27:49.644367+00:00", "meta": {"OBJECT_NAME": "GPM-CORE", "OBJECT_ID": "2014-009C", "EPOCH": "2025-12-06T22:19:18.615648", "MEAN_MOTION": 15.4534838, "ECCENTRICITY": 0.00105369, "INCLINATION": 64.9743, "RA_OF_ASC_NODE": 232.1492, "ARG_OF_PERICENTER": 269.5357, "MEAN_ANOMALY": 90.4576, "EPHEMERIS_TYPE": 0, "CLASSIFICATION_TYPE": "U", "NORAD_CAT_ID": 39574, "ELEMENT_SET_NO": 999, "REV_AT_EPOCH": 66811, "BSTAR": 0.00044820888, "MEAN_MOTION_DOT": 0.0002136, "MEAN_MOTION_DDOT": 0}, "tle": {"line1": "1 39574U 14009C   25340.93007657  .00021360  00000+0  44821-3 0  9996", "line2": "2 39574  64.9743 232.1492 0010536 269.5357  90.4576 15.45348380668112"}}, "geometry": {"type": "Point", "coordinates": [44.33832458128071, 12.56273026936137]}}, {"type": "Feature", "properties": {"norad_id": 39634, "name": "SENTINEL-1A", "group": "resource", "lat": -37.6616994184551, "lon": 160.4223800054775, "alt_km": 702.7266350974314, "timestamp": "2025-12-07T11:27:49.644377+00:00", "meta": {"OBJECT_NAME": "SENTINEL-1A", "OBJECT_ID": "2014-016A", "EPOCH": "2025-12-06T22:56:52.090080", "MEAN_MOTION": 14.59198895, "ECCENTRICITY": 0.00012454, "INCLINATION": 98.1803, "RA_OF_ASC_NODE": 346.2829, "ARG_OF_PERICENTER": 89.3819, "MEAN_ANOMALY": 270.7523, "EPHEMERIS_TYPE": 0, "CLASSIFICATION_TYPE": "U", "NORAD_CAT_ID": 39634, "ELEMENT_SET_NO": 999, "REV_AT_EPOCH": 62198, "BSTAR": 8.7437411e-05, "MEAN_MOTION_DOT": 3.66e-06, "MEAN_MOTION_DDOT": 0}, "tle": {"line1": "1 39634U 14016A   25340.95615845  .00000366  00000+0  87437-4 0  9991", "line2": "2 39634  98.1803 346.2829 0001245  89.3819 270.7523 14.59198895621981"}}, "geometry": {"type": "Point", "coordinates": [160.4223800054775, -37.6616994184551]}}, {"type": "Feature", "properties": {"norad_id": 39731, "name": "KAZEOSAT 1", "group": "resource", "lat": 22.936253442616874, "lon": -122.93625807229598, "alt_km": 750.8826577997906, "timestamp": "2025-12-07T11:27:49.644388+00:00", "meta": {"OBJECT_NAME": "KAZEOSAT 1", "OBJECT_ID": "2014-024A", "EPOCH": "2025-12-06T21:25:03.181152", "MEAN_MOTION": 14.42057369, "ECCENTRICITY": 0.00010729, "INCLINATION": 98.3442, "RA_OF_ASC_NODE": 52.9309, "ARG_OF_PERICENTER": 99.7315, "MEAN_ANOMALY": 260.3996, "EPHEMERIS_TYPE": 0, "CLASSIFICATION_TYPE": "U", "NORAD_CAT_ID": 39731, "ELEMENT_SET_NO": 999, "REV_AT_EPOCH": 61084, "BSTAR": 0.0001564987, "MEAN_MOTION_DOT": 4.71e-06, "MEAN_MOTION_DDOT": 0}, "tle": {"line1": "1 39731U 14024A   25340.89239793  .00000471  00000+0  15650-3 0  9999", "line2": "2 39731  98.3442  52.9309 0001072  99.7315 260.3996 14.42057369610842"}}, "geometry": {"type": "Point", "coordinates": [-122.93625807229598, 22.936253442616874]}}, {"type": "Feature", "properties": {"norad_id": 39766, "name": "ALOS-2", "group": "resource", "lat": 52.62677286999623, "lon": 65.89322691270131, "alt_km": 625.4816709171328, "timestamp": "2025-12-07T11:27:49.644399+00:00", "meta": {"OBJECT_NAME": "ALOS-2", "OBJECT_ID": "2014-029A", "EPOCH": "2025-12-06T22:14:16.221696", "MEAN_MOTION": 14.79455384, "ECCENTRICITY": 0.00014349, "INCLINATION": 97.9234, "RA_OF_ASC_NODE": 75.8559, "ARG_OF_PERICENTER": 105.3258, "MEAN_ANOMALY": 254.8112, "EPHEMERIS_TYPE": 0, "CLASSIFICATION_TYPE": "U", "NORAD_CAT_ID": 39766, "ELEMENT_SET_NO": 999, "REV_AT_EPOCH": 62315, "BSTAR": 0.000430739, "MEAN_MOTION_DOT": 3.165e-05, "MEAN_MOTION_DDOT": 0}, "tle": {"line1": "1 39766U 14029A   25340.92657664  .00003165  00000+0  43074-3 0  9991", "line2": "2 39766  97.9234  75.8559 0001434 105.3258 254.8112 14.79455384623152"}}, "geometry": {"type": "Point", "coordinates": [65.89322691270131, 52.62677286999623]}}, {"type": "Feature", "properties": {"norad_id": 40010, "name": "KAZEOSAT 2", "group": "resource", "lat": -35.67784640594432, "lon": 0.5981933615331303, "alt_km": 614.3390185371909, "timestamp": "2025-12-07T11:27:49.644409+00:00", "meta": {"OBJECT_NAME": "KAZEOSAT 2", "OBJECT_ID": "2014-033A", "EPOCH": "2025-12-06T19:56:28.162464", "MEAN_MOTION": 14.85153465, "ECCENTRICITY": 0.00074041, "INCLINATION": 97.5516, "RA_OF_ASC_NODE": 185.4505, "ARG_OF_PERICENTER": 228.4499, "MEAN_ANOMALY": 131.6082, "EPHEMERIS_TYPE": 0, "CLASSIFICATION_TYPE": "U", "NORAD_CAT_ID": 40010, "ELEMENT_SET_NO": 999, "REV_AT_EPOCH": 62040, "BSTAR": 0.00017494673, "MEAN_MOTION_DOT": 1.448e-05, "MEAN_MOTION_DDOT": 0}, "tle": {"line1": "1 40010U 14033A   25340.83088151  .00001448  00000+0  17495-3 0  9999", "line2": "2 40010  97.5516 185.4505 0007404 228.4499 131.6082 14.85153465620406"}}, "geometry": {"type": "Point", "coordinates": [0.5981933615331303, -35.67784640594432]}}, {"type": "Feature", "properties": {"norad_id": 40011, "name": "HODOYOSHI-4", "group": "resource", "lat": -77.73392530339795, "lon": -46.92128367319701, "alt_km": 601.3114128782918, "timestamp": "2025-12-07T11:27:49.644420+00:00", "meta": {"OBJECT_NAME": "HODOYOSHI-4", "OBJECT_ID": "2014-033B", "EPOCH": "2025-12-06T21:22:51.951648", "MEAN_MOTION": 14.87449343, "ECCENTRICITY": 0.00228438, "INCLINATION": 97.5416, "RA_OF_ASC_NODE": 170.0633, "ARG_OF_PERICENTER": 220.5471, "MEAN_ANOMALY": 139.4045, "EPHEMERIS_TYPE": 0, "CLASSIFICATION_TYPE": "U", "NORAD_CAT_ID": 40011, "ELEMENT_SET_NO": 999, "REV_AT_EPOCH": 62021, "BSTAR": 0.00037128745, "MEAN_MOTION_DOT": 3.326e-05, "MEAN_MOTION_DDOT": 0}, "tle": {"line1": "1 40011U 14033B   25340.89087907  .00003326  00000+0  37129-3 0  9997", "line2": "2 40011  97.5416 170.0633 0022843 220.5471 139.4045 14.87449343620214"}}, "geometry": {"type": "Point", "coordinates": [-46.92128367319701, -77.73392530339795]}}, {"type": "Feature", "properties": {"norad_id": 40013, "name": "DEIMOS-2", "group": "resource", "lat": -46.08911212181846, "lon": -134.56914623472608, "alt_km": 596.0916879439374, "timestamp": "2025-12-07T11:27:49.644431+00:00", "meta": {"OBJECT_NAME": "DEIMOS-2", "OBJECT_ID": "2014-033D", "EPOCH": "2025-12-06T19:35:11.734656", "MEAN_MOTION": 14.9293486, "ECCENTRICITY": 9.883e-05, "INCLINATION": 97.6071, "RA_OF_ASC_NODE": 216.8114, "ARG_OF_PERICENTER": 94.5291, "MEAN_ANOMALY": 265.6042, "EPHEMERIS_TYPE": 0, "CLASSIFICATION_TYPE": "U", "NORAD_CAT_ID": 40013, "ELEMENT_SET_NO": 999, "REV_AT_EPOCH": 60901, "BSTAR": 0.00044661956, "MEAN_MOTION_DOT": 4.581e-05, "MEAN_MOTION_DDOT": 0}, "tle": {"line1": "1 40013U 14033D   25340.81610804  .00004581  00000+0  44662-3 0  9993", "line2": "2 40013  97.6071 216.8114 0000988  94.5291 265.6042 14.92934860609015"}}, "geometry": {"type": "Point", "coordinates": [-134.56914623472608, -46.08911212181846]}}, {"type": "Feature", "properties": {"norad_id": 40015, "name": "HODOYOSHI-3", "group": "resource", "lat": -55.18773988095995, "lon": -43.55853970443715, "alt_km": 602.0813746796157, "timestamp": "2025-12-07T11:27:49.644441+00:00", "meta": {"OBJECT_NAME": "HODOYOSHI-3", "OBJECT_ID": "2014-033F", "EPOCH": "2025-12-06T21:27:46.890144", "MEAN_MOTION": 14.84775356, "ECCENTRICITY": 0.0031828, "INCLINATION": 97.6196, "RA_OF_ASC_NODE": 146.9837, "ARG_OF_PERICENTER": 267.9554, "MEAN_ANOMALY": 91.8016, "EPHEMERIS_TYPE": 0, "CLASSIFICATION_TYPE": "U", "NORAD_CAT_ID": 40015, "ELEMENT_SET_NO": 999, "REV_AT_EPOCH": 61908, "BSTAR": 0.00035828186, "MEAN_MOTION_DOT": 3.014e-05, "MEAN_MOTION_DDOT": 0}, "tle": {"line1": "1 40015U 14033F   25340.89429271  .00003014  00000+0  35828-3 0  9993", "line2": "2 40015  97.6196 146.9837 0031828 267.9554  91.8016 14.84775356619087"}}, "geometry": {"type": "Point", "coordinates": [-43.55853970443715, -55.18773988095995]}}, {"type": "Feature", "properties": {"norad_id": 40053, "name": "SPOT 7", "group": "resource", "lat": 52.935398318848705, "lon": 32.81798690071227, "alt_km": 685.0427392718939, "timestamp": "2025-12-07T11:27:49.644452+00:00", "meta": {"OBJECT_NAME": "SPOT 7", "OBJECT_ID": "2014-034A", "EPOCH": "2025-12-06T22:04:00.502464", "MEAN_MOTION": 14.60722399, "ECCENTRICITY": 0.0001525, "INCLINATION": 98.0914, "RA_OF_ASC_NODE": 43.1289, "ARG_OF_PERICENTER": 94.7659, "MEAN_ANOMALY": 265.3716, "EPHEMERIS_TYPE": 0, "CLASSIFICATION_TYPE": "U", "NORAD_CAT_ID": 40053, "ELEMENT_SET_NO": 999, "REV_AT_EPOCH": 60906, "BSTAR": 0.00022965098, "MEAN_MOTION_DOT": 1.074e-05, "MEAN_MOTION_DDOT": 0}, "tle": {"line1": "1 40053U 14034A   25340.91945026  .00001074  00000+0  22965-3 0  9992", "line2": "2 40053  98.0914  43.1289 0001525  94.7659 265.3716 14.60722399609069"}}, "geometry": {"type": "Point", "coordinates": [32.81798690071227, 52.935398318848705]}}, {"type": "Feature", "properties": {"norad_id": 40072, "name": "SKYSAT-B", "group": "resource", "lat": -25.635161949549747, "lon": 100.85907651835532, "alt_km": 609.0080650176396, "timestamp": "2025-12-07T11:27:49.644462+00:00", "meta": {"OBJECT_NAME": "SKYSAT-B", "OBJECT_ID": "2014-037D", "EPOCH": "2025-12-06T20:00:34.799040", "MEAN_MOTION": 14.87293724, "ECCENTRICITY": 0.00056593, "INCLINATION": 98.3602, "RA_OF_ASC_NODE": 284.228, "ARG_OF_PERICENTER": 168.1391, "MEAN_ANOMALY": 191.9957, "EPHEMERIS_TYPE": 0, "CLASSIFICATION_TYPE": "U", "NORAD_CAT_ID": 40072, "ELEMENT_SET_NO": 999, "REV_AT_EPOCH": 61736, "BSTAR": 0.00035057257, "MEAN_MOTION_DOT": 3.103e-05, "MEAN_MOTION_DDOT": 0}, "tle": {"line1": "1 40072U 14037D   25340.83373610  .00003103  00000+0  35057-3 0  9992", "line2": "2 40072  98.3602 284.2280 0005659 168.1391 191.9957 14.87293724617364"}}, "geometry": {"type": "Point", "coordinates": [100.85907651835532, -25.635161949549747]}}]}